{
  "type": "FeatureCollection",
  "features": [
    {
      "type": "Feature",
      "properties": {
        "norad_id": 34340,
        "name": "COSMOS 2251 DEB",
        "group": "cosmos-2251-debris",
        "lat": -29.218831589868632,
        "lon": -53.04915026802517,
        "alt_km": 985.2024754391914,
        "timestamp": "2025-12-07T20:38:14.457534+00:00",
        "meta_object_name": "COSMOS 2251 DEB",
        "meta_object_id": "1993-036PN",
        "meta_epoch": "2025-12-07T05:12:28.831104",
        "meta_mean_motion": 13.79542218,
        "meta_eccentricity": 0.02820515,
        "meta_inclination": 74.0788,
        "meta_ra_of_asc_node": 317.2105,
        "meta_arg_of_pericenter": 66.3627,
        "meta_mean_anomaly": 314.8601,
        "meta_ephemeris_type": 0,
        "meta_classification_type": "U",
        "meta_norad_cat_id": 34340,
        "meta_element_set_no": 999,
        "meta_rev_at_epoch": 84192,
        "meta_bstar": 0.0017131159,
        "meta_mean_motion_dot": 2.358e-05,
        "meta_mean_motion_ddot": 0,
        "tle_line1": "1 34340U 93036PN  25341.21700036  .00002358  00000+0  17131-2 0  9991",
        "tle_line2": "2 34340  74.0788 317.2105 0282051  66.3627 314.8601 13.79542218841926"
      },
      "geometry": {
        "type": "Point",
        "coordinates": [
          -53.04915026802517,
          -29.218831589868632
        ]
      }
    },
    {
      "type": "Feature",
      "properties": {
        "norad_id": 34343,
        "name": "COSMOS 2251 DEB",
        "group": "cosmos-2251-debris",
        "lat": -73.98943829215472,
        "lon": 6.00627486052644,
        "alt_km": 674.7857594478983,
        "timestamp": "2025-12-07T20:38:14.457544+00:00",
        "meta_object_name": "COSMOS 2251 DEB",
        "meta_object_id": "1993-036PR",
        "meta_epoch": "2025-12-07T08:07:40.497024",
        "meta_mean_motion": 14.69293369,
        "meta_eccentricity": 0.00228869,
        "meta_inclination": 74.0205,
        "meta_ra_of_asc_node": 100.0258,
        "meta_arg_of_pericenter": 16.844,
        "meta_mean_anomaly": 16.6991,
        "meta_ephemeris_type": 0,
        "meta_classification_type": "U",
        "meta_norad_cat_id": 34343,
        "meta_element_set_no": 999,
        "meta_rev_at_epoch": 88651,
        "meta_bstar": 0.0025073936,
        "meta_mean_motion_dot": 0.00014859,
        "meta_mean_motion_ddot": 0,
        "tle_line1": "1 34343U 93036PR  25341.33866316  .00014859  00000+0  25074-2 0  9995",
        "tle_line2": "2 34343  74.0205 100.0258 0022886  16.8440  16.6991 14.69293369886514"
      },
      "geometry": {
        "type": "Point",
        "coordinates": [
          6.00627486052644,
          -73.98943829215472
        ]
      }
    },
    {
      "type": "Feature",
      "properties": {
        "norad_id": 34344,
        "name": "COSMOS 2251 DEB",
        "group": "cosmos-2251-debris",
        "lat": -37.08100715070574,
        "lon": -48.39637863286969,
        "alt_km": 832.9599525979011,
        "timestamp": "2025-12-07T20:38:14.457554+00:00",
        "meta_object_name": "COSMOS 2251 DEB",
        "meta_object_id": "1993-036PS",
        "meta_epoch": "2025-12-05T11:56:44.170944",
        "meta_mean_motion": 14.16331086,
        "meta_eccentricity": 0.01553422,
        "meta_inclination": 73.9776,
        "meta_ra_of_asc_node": 123.2752,
        "meta_arg_of_pericenter": 308.8907,
        "meta_mean_anomaly": 112.1202,
        "meta_ephemeris_type": 0,
        "meta_classification_type": "U",
        "meta_norad_cat_id": 34344,
        "meta_element_set_no": 999,
        "meta_rev_at_epoch": 85994,
        "meta_bstar": 0.0025753986,
        "meta_mean_motion_dot": 5.727e-05,
        "meta_mean_motion_ddot": 0,
        "tle_line1": "1 34344U 93036PS  25339.49773346  .00005727  00000+0  25754-2 0  9999",
        "tle_line2": "2 34344  73.9776 123.2752 0155342 308.8907 112.1202 14.16331086859943"
      },
      "geometry": {
        "type": "Point",
        "coordinates": [
          -48.39637863286969,
          -37.08100715070574
        ]
      }
    },
    {
      "type": "Feature",
      "properties": {
        "norad_id": 34346,
        "name": "COSMOS 2251 DEB",
        "group": "cosmos-2251-debris",
        "lat": -73.85181122562948,
        "lon": -136.87005179732614,
        "alt_km": 990.4399863216195,
        "timestamp": "2025-12-07T20:38:14.457563+00:00",
        "meta_object_name": "COSMOS 2251 DEB",
        "meta_object_id": "1993-036PU",
        "meta_epoch": "2025-12-07T00:49:29.611200",
        "meta_mean_motion": 13.99667503,
        "meta_eccentricity": 0.02064856,
        "meta_inclination": 73.9953,
        "meta_ra_of_asc_node": 322.1459,
        "meta_arg_of_pericenter": 142.4329,
        "meta_mean_anomaly": 285.5331,
        "meta_ephemeris_type": 0,
        "meta_classification_type": "U",
        "meta_norad_cat_id": 34346,
        "meta_element_set_no": 999,
        "meta_rev_at_epoch": 85330,
        "meta_bstar": 0.0012980505,
        "meta_mean_motion_dot": 2.259e-05,
        "meta_mean_motion_ddot": 0,
        "tle_line1": "1 34346U 93036PU  25341.03437050  .00002259  00000+0  12981-2 0  9998",
        "tle_line2": "2 34346  73.9953 322.1459 0206485 142.4329 285.5331 13.99667503853309"
      },
      "geometry": {
        "type": "Point",
        "coordinates": [
          -136.87005179732614,
          -73.85181122562948
        ]
      }
    },
    {
      "type": "Feature",
      "properties": {
        "norad_id": 34383,
        "name": "COSMOS 2251 DEB",
        "group": "cosmos-2251-debris",
        "lat": -8.62201728597612,
        "lon": -54.7289075440428,
        "alt_km": 543.6839264052824,
        "timestamp": "2025-12-07T20:38:14.457573+00:00",
        "meta_object_name": "COSMOS 2251 DEB",
        "meta_object_id": "1993-036PY",
        "meta_epoch": "2025-12-07T04:49:12.671904",
        "meta_mean_motion": 15.08219025,
        "meta_eccentricity": 0.0002691,
        "meta_inclination": 74.0223,
        "meta_ra_of_asc_node": 309.1183,
        "meta_arg_of_pericenter": 35.1392,
        "meta_mean_anomaly": 339.0788,
        "meta_ephemeris_type": 0,
        "meta_classification_type": "U",
        "meta_norad_cat_id": 34383,
        "meta_element_set_no": 999,
        "meta_rev_at_epoch": 89030,
        "meta_bstar": 0.0050973479,
        "meta_mean_motion_dot": 0.00079775,
        "meta_mean_motion_ddot": 0,
        "tle_line1": "1 34383U 93036PY  25341.20084111  .00079775  00000+0  50973-2 0  9994",
        "tle_line2": "2 34383  74.0223 309.1183 0002691  35.1392 339.0788 15.08219025890308"
      },
      "geometry": {
        "type": "Point",
        "coordinates": [
          -54.7289075440428,
          -8.62201728597612
        ]
      }
    },
    {
      "type": "Feature",
      "properties": {
        "norad_id": 34387,
        "name": "COSMOS 2251 DEB",
        "group": "cosmos-2251-debris",
        "lat": -13.939261804116722,
        "lon": -143.10841106883353,
        "alt_km": 725.6256710739135,
        "timestamp": "2025-12-07T20:38:14.457638+00:00",
        "meta_object_name": "COSMOS 2251 DEB",
        "meta_object_id": "1993-036QC",
        "meta_epoch": "2025-12-07T03:06:58.176864",
        "meta_mean_motion": 14.4380198,
        "meta_eccentricity": 0.00386017,
        "meta_inclination": 74.0398,
        "meta_ra_of_asc_node": 222.3212,
        "meta_arg_of_pericenter": 320.3557,
        "meta_mean_anomaly": 192.0146,
        "meta_ephemeris_type": 0,
        "meta_classification_type": "U",
        "meta_norad_cat_id": 34387,
        "meta_element_set_no": 999,
        "meta_rev_at_epoch": 88100,
        "meta_bstar": 0.00051898444,
        "meta_mean_motion_dot": 1.756e-05,
        "meta_mean_motion_ddot": 0,
        "tle_line1": "1 34387U 93036QC  25341.12984001  .00001756  00000+0  51898-3 0  9998",
        "tle_line2": "2 34387  74.0398 222.3212 0038601 320.3557 192.0146 14.43801980881003"
      },
      "geometry": {
        "type": "Point",
        "coordinates": [
          -143.10841106883353,
          -13.939261804116722
        ]
      }
    },
    {
      "type": "Feature",
      "properties": {
        "norad_id": 34388,
        "name": "COSMOS 2251 DEB",
        "group": "cosmos-2251-debris",
        "lat": -48.16088661324172,
        "lon": 70.89844304577281,
        "alt_km": 727.7995867212776,
        "timestamp": "2025-12-07T20:38:14.457651+00:00",
        "meta_object_name": "COSMOS 2251 DEB",
        "meta_object_id": "1993-036QD",
        "meta_epoch": "2025-12-07T03:42:15.535008",
        "meta_mean_motion": 14.4932198,
        "meta_eccentricity": 0.00142263,
        "meta_inclination": 74.0394,
        "meta_ra_of_asc_node": 233.5796,
        "meta_arg_of_pericenter": 282.056,
        "meta_mean_anomaly": 229.0664,
        "meta_ephemeris_type": 0,
        "meta_classification_type": "U",
        "meta_norad_cat_id": 34388,
        "meta_element_set_no": 999,
        "meta_rev_at_epoch": 88074,
        "meta_bstar": 0.0011888421,
        "meta_mean_motion_dot": 4.52e-05,
        "meta_mean_motion_ddot": 0,
        "tle_line1": "1 34388U 93036QD  25341.15434647  .00004520  00000+0  11888-2 0  9994",
        "tle_line2": "2 34388  74.0394 233.5796 0014226 282.0560 229.0664 14.49321980880745"
      },
      "geometry": {
        "type": "Point",
        "coordinates": [
          70.89844304577281,
          -48.16088661324172
        ]
      }
    }
  ]
}